ONEWEB-0249             
1 48967U 21060A   25209.76102755  .00000032  00000+0  50053-4 0  9995
2 48967  87.9051 293.2486 0001938  97.1222 263.0130 13.16595267198349
ONEWEB-0250             
1 48968U 21060B   25209.62352562  .00000031  00000+0  41660-4 0  9997
2 48968  87.9049 292.0919 0001491  69.9097 290.2199 13.25810107197345
ONEWEB-0252             
1 48970U 21060D   25210.17267727  .00000200  00000+0  49072-3 0  9992
2 48970  87.9050 293.1595 0002284 104.7055 255.4329 13.16597443198440
ONEWEB-0253             
1 48971U 21060E   25209.78161307 -.00000054  00000+0 -17403-3 0  9997
2 48971  87.9049 293.2412 0002150  93.9895 266.1482 13.16595445198316
ONEWEB-0254             
1 48972U 21060F   25209.25914447  .00000024  00000+0  30377-4 0  9992
2 48972  87.9055 293.3309 0002098  86.4417 273.6954 13.16595026196969
ONEWEB-0255             
1 48973U 21060G   25209.75311524  .00000031  00000+0  46782-4 0  9990
2 48973  87.9046 293.2629 0002081  91.1854 268.9515 13.16595186198390
ONEWEB-0256             
1 48974U 21060H   25209.55123623  .00000043  00000+0  79832-4 0  9995
2 48974  87.9046 293.3138 0002100 102.1376 257.9990 13.16596497197043
ONEWEB-0257             
1 48975U 21060J   25209.50770584 -.00000014  00000+0 -69378-4 0  9999
2 48975  87.9050 293.2891 0002201  95.1017 265.0365 13.16595610196994
